EUTELSAT 65 WEST A      
1 41382U 16014A   19352.78427491 -.00000273  00000-0  00000-0 0  9995
2 41382   0.0484  20.9488 0002089 247.2987  36.0124  1.00270439 13753
IRNSS-1F                
1 41384U 16015A   19353.30327204  .00000164  00000-0  00000+0 0  9995
2 41384   2.4159 230.2071 0017928 180.4139 178.6831  1.00274736 13908
BEIDOU IGSO-6           
1 41434U 16021A   19352.67226374 -.00000162  00000-0  00000+0 0  9992
2 41434  56.7820  62.4616 0040439 206.8167 152.6541  1.00294654 13695
IRNSS-1G                
1 41469U 16027A   19352.82309497 -.00000329  00000-0  00000+0 0  9996
2 41469   2.4518 232.9247 0003383 232.2746  47.6969  1.00279069 13401
JCSAT 2B                
1 41471U 16028A   19353.45849834 -.00000163  00000-0  00000+0 0  9990
2 41471   0.0195   6.6232 0002011 265.3404 134.8605  1.00270058 13308
THAICOM 8               
1 41552U 16031A   19353.42549462 -.00000119  00000-0  00000+0 0  9996
2 41552   0.0675  52.9277 0002229 289.3184 337.2049  1.00269782 12993
INTELSAT 31 (IS-31)     
1 41581U 16035A   19352.85013817 -.00000148  00000-0  00000-0 0  9991
2 41581   0.0137 271.4273 0002417 299.4043  87.3185  1.00269638 12856
BEIDOU-2 G7             
1 41586U 16037A   19353.43104903 -.00000352  00000-0  00000+0 0  9996
2 41586   1.1619  55.9599 0007242 354.5645 302.9434  1.00269892 13009
ABS-2A (MONGOLSAT-1)    
1 41588U 16038A   19353.17113212 -.00000082  00000-0  00000+0 0  9993
2 41588   0.0160   2.0790 0001373 171.9123  49.8504  1.00270250 12911
EUTELSAT 117 WEST B     
1 41589U 16038B   19353.53168390 -.00000010  00000-0  00000+0 0  9992
2 41589   0.0102 161.2665 0000197 348.7181  12.2614  1.00270847 12927
BRISAT                  
1 41591U 16039A   19353.45576233 -.00000195  00000-0  00000+0 0  9990
2 41591   0.0220 340.9181 0002149 289.5019 131.9107  1.00268394 12864
ECHOSTAR 18             
1 41592U 16039B   19353.10535578 -.00000280  00000-0  00000+0 0  9995
2 41592   0.0182  14.8523 0001529 261.0852 148.0582  1.00271409 12845
MUOS-5                  
1 41622U 16041A   19353.40887722 -.00000131  00000-0  00000+0 0  9991
2 41622   7.6293 309.1911 0201243 214.7381 326.0531  1.00271100 13282
TIANTONG-1 1            
1 41725U 16048A   19353.11507583 -.00000316  00000-0  00000+0 0  9999
2 41725   3.2472 331.2814 0005435 345.9928 272.9640  1.00270539 12479
JCSAT-16                
1 41729U 16050A   19353.04493875 -.00000354  00000-0  00000+0 0  9998
2 41729   0.0468  85.0458 0005065 187.2276 315.2742  1.00269146 12288
USA 270                 
1 41744U 16052A   19349.75329986  .00000116  00000-0  00000+0 0  9996
2 41744   0.1221  98.3022 0000579  62.1044 249.3864  1.00135199  4324
USA 271                 
1 41745U 16052B   19346.45182949 -.00000221  00000-0  00000+0 0  9995
2 41745   0.1003  91.0472 0001006 219.3846  83.0605  1.00060092  4093
INTELSAT 36 (IS-36)     
1 41747U 16053A   19352.88276448 -.00000022  00000-0  00000-0 0  9990
2 41747   0.0111 354.7452 0001840  18.9180  99.8234  1.00269603 12182
INTELSAT 33E (IS-33E)   
1 41748U 16053B   19352.90675435  .00000051  00000-0  00000-0 0  9994
2 41748   0.0158 328.2058 0002607 286.1765 219.2680  1.00271681 12465
INSAT-3DR               
1 41752U 16054A   19353.52992907 -.00000075  00000-0  00000+0 0  9991
2 41752   0.0982 100.2897 0013351 171.7960  80.4935  1.00271717 12021
GSAT-18                 
1 41793U 16060A   19352.88381132 -.00000074  00000-0  00000-0 0  9993
2 41793   0.0703 105.0258 0000392 155.2541 219.0688  1.00270655 11758
SKY MUSTER 2            
1 41794U 16060B   19352.75435292 -.00000242  00000-0  00000+0 0  9993
2 41794   0.0175 324.2115 0001678 311.8169 227.4080  1.00270744 11784
HIMAWARI-9              
1 41836U 16064A   19353.15661937 -.00000273  00000-0  00000+0 0  9990
2 41836   0.0490  81.4108 0000623 180.6979  22.5171  1.00270822 11518
SHIJIAN-17 (SJ-17)      
1 41838U 16065A   19352.92421912 -.00000360  00000-0  00000-0 0  9992
2 41838   0.0737 261.6426 0007187 357.9913 273.0175  1.00422950 11426
GOES 16                 
1 41866U 16071A   19353.57188965 -.00000246  00000-0  00000+0 0  9992
2 41866   0.0462 150.5977 0000636 168.5340 259.4352  1.00270979 11327
TIANLIAN 1-04           
1 41869U 16072A   19352.88442196 -.00000105  00000-0  00000-0 0  9993
2 41869   0.6483 282.8079 0011105 168.4631  31.4278  1.00271993 11520
WGS F8 (USA 272)        
1 41879U 16075A   19353.45576309 -.00000200  00000-0  00000+0 0  9990
2 41879   0.0025   9.2515 0000103 138.3969 254.0002  1.00272424 11145
FENGYUN 4A              
1 41882U 16077A   19352.65535694 -.00000324  00000-0  00000-0 0  9997
2 41882   0.0821 298.0115 0003442 124.5273   4.6607  1.00261146 11195
ECHOSTAR 19             
1 41893U 16079A   19353.20186713 -.00000136  00000-0  00000+0 0  9997
2 41893   0.0182   2.4003 0001414 270.5874 150.0971  1.00269134 10954
JCSAT-15                
1 41903U 16082A   19353.05604990 -.00000348  00000-0  00000+0 0  9993
2 41903   0.0185 331.5003 0001445 312.5397 293.5784  1.00271034 10997
STAR ONE D1             
1 41904U 16082B   19352.85231907 -.00000208  00000-0  00000-0 0  9991
2 41904   0.0108  60.9107 0001111 205.8813  43.2408  1.00271792 10981
TJS-2                   
1 41911U 17001A   19352.87067142 -.00000340  00000-0  00000-0 0  9998
2 41911   0.5154  95.2141 0003848 231.3208 181.5836  1.00275055 10948
SBIRS GEO-4 (USA 273)   
1 41937U 17004A   19353.19785385  .00000131  00000-0  00000+0 0  9997
2 41937   4.1569 311.9742 0002088 312.8391  94.5345  1.00271142 10811
HISPASAT 36W-1          
1 41942U 17006A   19353.10598441 -.00000242  00000-0  00000+0 0  9995
2 41942   0.0100 190.4965 0001011  71.0449 188.0316  1.00271081 10744
TELKOM 3S               
1 41944U 17007A   19352.82082683 -.00000360  00000-0  00000-0 0  9994
2 41944   0.0175  27.2860 0002205 253.3216 220.0346  1.00269307 10357
INTELSAT 32E (IS-32E)   
1 41945U 17007B   19353.34216045 -.00000267  00000-0  00000+0 0  9999
2 41945   0.0183  17.2501 0000155 172.6038 337.7901  1.00272323 10462
ECHOSTAR 23             
1 42070U 17014A   19352.85554681 -.00000267  00000-0  00000-0 0  9994
2 42070   0.0192  11.7193 0001697 252.5289  63.0120  1.00270321 10149
WGS F9 (USA 275)        
1 42075U 17016A   19353.23926348  .00000076  00000-0  00000+0 0  9993
2 42075   0.0087 341.7213 0000070   0.3942 248.3508  1.00269211 10149
SES-10                  
1 42432U 17017A   19353.10535578 -.00000270  00000-0  00000+0 0  9995
2 42432   0.0089 337.6838 0002681 297.6563 143.1013  1.00268535  9964
CHINASAT 16 (SJ-13)     
1 42662U 17018A   19353.43104902 -.00000350  00000-0  99999+0 0  9994
2 42662   0.0856  90.9144 0007907 156.9439 105.5544  1.00268084  9954
KOREASAT 7              
1 42691U 17023A   19353.05049285 -.00000359  00000-0  00000+0 0  9996
2 42691   0.0104  12.9983 0001805 210.4574 357.9829  1.00270014  9656
SGDC                    
1 42692U 17023B   19351.96815017 -.00000245  00000-0  00000-0 0  9994
2 42692   0.0300  69.8369 0002071 198.6668  91.4810  1.00270937  9633
GSAT-9                  
1 42695U 17024A   19352.88843483 -.00000284  00000-0  00000-0 0  9991
2 42695   0.0119  91.7974 0001751 179.2705 233.3003  1.00272869  9537
INMARSAT 5-F4           
1 42698U 17025A   19353.13599260  .00000077  00000-0  00000+0 0  9993
2 42698   0.0181  10.9812 0000661 293.2032 248.7229  1.00272712  9472
SES-15                  
1 42709U 17026A   19353.43483071  .00000062  00000-0  00000+0 0  9996
2 42709   0.0121 327.2139 0000308 345.5491 162.3541  1.00267301 10404
QZS-2  (MICHIBIKI-2)    
1 42738U 17028A   19351.67464876 -.00000197  00000-0  00000+0 0  9996
2 42738  43.2978 276.9711 0759102 269.3453 281.7281  1.00289581  9336
VIASAT-2                
1 42740U 17029A   19353.14225696 -.00000263  00000-0  00000+0 0  9993
2 42740   0.0208 290.3709 0000329  61.4783  76.9219  1.00269024  9403
EUTELSAT 172B           
1 42741U 17029B   19353.47024266 -.00000004  00000-0  00000+0 0  9993
2 42741   0.0250  83.1915 0000107 265.1887  80.6853  1.00269970  9923
GSAT-19                 
1 42747U 17031A   19353.45289962  .00000127  00000-0  00000+0 0  9991
2 42747   0.0093  11.0860 0001898 340.6887 306.8567  1.00271023  9343
ECHOSTAR 21             
1 42749U 17032A   19352.65577612  .00000065  00000-0  00000-0 0  9999
2 42749   5.8626 313.6554 0002270 309.2845  70.3842  1.00271866  9323
CHINASAT 9A (ZX 9A)     
1 42763U 17035A   19353.39175216 -.00000310  00000-0  00000+0 0  9997
2 42763   0.0051 262.5591 0000440 291.1508 136.4198  1.00266662  9868
BULGARIASAT-1           
1 42801U 17038A   19353.15656367  .00000014  00000-0  00000+0 0  9998
2 42801   0.0315 297.8412 0002437 330.7639 237.1220  1.00274704  9120
HELLAS-SAT 3            
1 42814U 17040A   19353.16397875  .00000155  00000-0  00000+0 0  9998
2 42814   0.0610  27.1327 0003250 289.8458 228.5443  1.00267782  9093
GSAT-17                 
1 42815U 17040B   19353.39018191 -.00000256  00000-0  00000+0 0  9998
2 42815   0.0616 109.6571 0006310 153.7680  58.2446  1.00271116  9089
INTELSAT 35E (IS-35E)   
1 42818U 17041A   19353.10568413 -.00000236  00000-0  00000+0 0  9996
2 42818   0.0462 160.6410 0001823 116.8535 173.4801  1.00270543  9058
COSMOS 2520             
1 42907U 17046A   19353.15466069  .00000139  00000-0  00000+0 0  9990
2 42907   0.0246  75.8418 0000973 325.4202 146.8814  1.00271405  8602
TDRS 13                 
1 42915U 17047A   19352.79491771 -.00000100  00000-0  00000+0 0  9996
2 42915   5.8517 330.2297 0011043  78.9547 312.6797  1.00271452  8593
QZS-3 (MICHIBIKI-3)     
1 42917U 17048A   19353.46868934 -.00000346  00000-0  00000+0 0  9995
2 42917   0.0592 168.4421 0001414 136.4821  78.5729  1.00267335  8599
AMAZONAS 5              
1 42934U 17053A   19352.78514727 -.00000280  00000-0  00000+0 0  9999
2 42934   0.0277 327.3429 0003612 322.8440  18.5548  1.00271734  8335
